[{"OBJECT_NAME":"TK-2","OBJECT_ID":"2022-031A","EPOCH":"2026-03-09T22:51:17.143200","MEAN_MOTION":15.02943491,"ECCENTRICITY":0.00164117,"INCLINATION":97.8366,"RA_OF_ASC_NODE":263.9365,"ARG_OF_PERICENTER":100.3205,"MEAN_ANOMALY":259.9871,"EPHEMERIS_TYPE":0,"CLASSIFICATION_TYPE":"U","NORAD_CAT_ID":52150,"ELEMENT_SET_NO":999,"REV_AT_EPOCH":21555,"BSTAR":0.00040164474,"MEAN_MOTION_DOT":5.349e-5,"MEAN_MOTION_DDOT":0},{"OBJECT_NAME":"STARLINK-35220","OBJECT_ID":"2025-211K","EPOCH":"2026-03-09T16:48:09.392544","MEAN_MOTION":15.05653544,"ECCENTRICITY":9.4e-5,"INCLINATION":97.6021,"RA_OF_ASC_NODE":114.0797,"ARG_OF_PERICENTER":113.0996,"MEAN_ANOMALY":247.033,"EPHEMERIS_TYPE":0,"CLASSIFICATION_TYPE":"U","NORAD_CAT_ID":65661,"ELEMENT_SET_NO":999,"REV_AT_EPOCH":2704,"BSTAR":0.00018175142,"MEAN_MOTION_DOT":2.563e-5,"MEAN_MOTION_DDOT":0}]
